TEVEL2-4                
1 63213U 25052D   26068.69417973  .00020990  00000+0  70363-3 0  9998
2 63213  97.4009 325.1237 0004733  95.3468 264.8313 15.30925813 54879
STARLINK-33619          
1 63324U 25057T   26068.30441643  .00025210  00000+0  92208-3 0  9997
2 63324  43.0033  32.5765 0001968 250.6607 109.4032 15.27594350 55720
